STARLINK-36194          
1 67130U 25299AE  25364.91670139 -.01926731  00000+0 -25609-1 0  9993
2 67130  42.9990 205.6354 0001626 269.3808  72.3749 15.60670922  3731
ZIYUAN 3-04 (ZY 3-04)   
1 67131U 25300A   25361.09375736  .00002035  00000+0  94249-4 0  9996
2 67131  97.4921  75.1314 0003125 152.4137 207.7265 15.21251311  1672
CZ-4B R/B               
1 67132U 25300B   25362.20140237  .00052350  30493-5  23618-3 0  9998
2 67132  97.5543  77.1821 0165883 333.4129  25.8691 15.66474008  1896
KUIPER-00144            
1 67133U 25301A   25364.73447573  .00019473  00000+0  56225-3 0  9997
2 67133  51.8706  38.3575 0006490 134.6208 225.5308 15.35661785  3132
KUIPER-00164            
1 67134U 25301B   25364.66276198  .00052242  00000+0  14523-2 0  9998
2 67134  51.8725  38.6285 0003301 113.8089 246.3243 15.36339454  3303
KUIPER-00175            
1 67135U 25301C   25364.72331192  .00046043  00000+0  12641-2 0  9993
2 67135  51.8739  38.2793 0002114  77.0372 283.0850 15.36786022  3204
KUIPER-00179            
1 67136U 25301D   25364.72629854  .00047055  00000+0  13092-2 0  9994
2 67136  51.8733  38.3015 0003401  89.8416 270.2960 15.36360229  3316
KUIPER-00181            
1 67137U 25301E   25364.74430255  .00036533  00000+0  10787-2 0  9999
2 67137  51.8648  38.4181 0010493 158.1600 201.9835 15.34567209  3295
KUIPER-00183            
1 67138U 25301F   25364.74736042  .00030691  00000+0  91662-3 0  9994
2 67138  51.8629  38.4360 0010927 160.7184 199.4216 15.34290161  3308
KUIPER-00184            
1 67139U 25301G   25364.74355331  .00037422  00000+0  11039-2 0  9991
2 67139  51.8639  38.4126 0009116 156.3896 203.7509 15.34598982  3417
KUIPER-00186            
1 67140U 25301H   25364.73831028  .00042193  00000+0  12158-2 0  9998
2 67140  51.8690  38.3818 0007803 144.0585 216.0927 15.35292522  3135
KUIPER-00187            
1 67141U 25301J   25364.73079478  .00043336  00000+0  12185-2 0  9992
2 67141  51.8715  38.3341 0004613 126.9728 233.1681 15.36065511  3133
