CCSDS_OMM_VERS = 2.0
CREATION_DATE  = 
ORIGINATOR     = 

OBJECT_NAME    = STARLINK-36194
OBJECT_ID      = 2025-299AE
CENTER_NAME    = EARTH
REF_FRAME      = TEME
TIME_SYSTEM    = UTC
MEAN_ELEMENT_THEORY = SGP/SGP4

EPOCH          = 2025-12-30T22:00:03.000096
MEAN_MOTION    = 15.60670922
ECCENTRICITY   = .00016265
INCLINATION    = 42.9990
RA_OF_ASC_NODE = 205.6354
ARG_OF_PERICENTER = 269.3808
MEAN_ANOMALY   = 72.3749

EPHEMERIS_TYPE = 0
CLASSIFICATION_TYPE = U
NORAD_CAT_ID   = 67130
ELEMENT_SET_NO = 999
REV_AT_EPOCH   = 373
BSTAR          = -.25609214E-1
MEAN_MOTION_DOT = -.1926731E-1
MEAN_MOTION_DDOT = 0

CCSDS_OMM_VERS = 2.0
CREATION_DATE  = 
ORIGINATOR     = 

OBJECT_NAME    = ZIYUAN 3-04 (ZY 3-04)
OBJECT_ID      = 2025-300A
CENTER_NAME    = EARTH
REF_FRAME      = TEME
TIME_SYSTEM    = UTC
MEAN_ELEMENT_THEORY = SGP/SGP4

EPOCH          = 2025-12-27T02:15:00.635904
MEAN_MOTION    = 15.21251311
ECCENTRICITY   = .00031253
INCLINATION    = 97.4921
RA_OF_ASC_NODE = 75.1314
ARG_OF_PERICENTER = 152.4137
MEAN_ANOMALY   = 207.7265

EPHEMERIS_TYPE = 0
CLASSIFICATION_TYPE = U
NORAD_CAT_ID   = 67131
ELEMENT_SET_NO = 999
REV_AT_EPOCH   = 167
BSTAR          = .94249032E-4
MEAN_MOTION_DOT = .2035E-4
MEAN_MOTION_DDOT = 0

CCSDS_OMM_VERS = 2.0
CREATION_DATE  = 
ORIGINATOR     = 

OBJECT_NAME    = CZ-4B R/B
OBJECT_ID      = 2025-300B
CENTER_NAME    = EARTH
REF_FRAME      = TEME
TIME_SYSTEM    = UTC
MEAN_ELEMENT_THEORY = SGP/SGP4

EPOCH          = 2025-12-28T04:50:01.164768
MEAN_MOTION    = 15.66474008
ECCENTRICITY   = .01658831
INCLINATION    = 97.5543
RA_OF_ASC_NODE = 77.1821
ARG_OF_PERICENTER = 333.4129
MEAN_ANOMALY   = 25.8691

EPHEMERIS_TYPE = 0
CLASSIFICATION_TYPE = U
NORAD_CAT_ID   = 67132
ELEMENT_SET_NO = 999
REV_AT_EPOCH   = 189
BSTAR          = .23618416E-3
MEAN_MOTION_DOT = .5235E-3
MEAN_MOTION_DDOT = .3049283E-5

CCSDS_OMM_VERS = 2.0
CREATION_DATE  = 
ORIGINATOR     = 

OBJECT_NAME    = KUIPER-00144
OBJECT_ID      = 2025-301A
CENTER_NAME    = EARTH
REF_FRAME      = TEME
TIME_SYSTEM    = UTC
MEAN_ELEMENT_THEORY = SGP/SGP4

EPOCH          = 2025-12-30T17:37:38.703072
MEAN_MOTION    = 15.35661785
ECCENTRICITY   = .00064904
INCLINATION    = 51.8706
RA_OF_ASC_NODE = 38.3575
ARG_OF_PERICENTER = 134.6208
MEAN_ANOMALY   = 225.5308

EPHEMERIS_TYPE = 0
CLASSIFICATION_TYPE = U
NORAD_CAT_ID   = 67133
ELEMENT_SET_NO = 999
REV_AT_EPOCH   = 313
BSTAR          = .56224636E-3
MEAN_MOTION_DOT = .19473E-3
MEAN_MOTION_DDOT = 0

CCSDS_OMM_VERS = 2.0
CREATION_DATE  = 
ORIGINATOR     = 

OBJECT_NAME    = KUIPER-00164
OBJECT_ID      = 2025-301B
CENTER_NAME    = EARTH
REF_FRAME      = TEME
TIME_SYSTEM    = UTC
MEAN_ELEMENT_THEORY = SGP/SGP4

EPOCH          = 2025-12-30T15:54:22.635072
MEAN_MOTION    = 15.36339454
ECCENTRICITY   = .00033018
INCLINATION    = 51.8725
RA_OF_ASC_NODE = 38.6285
ARG_OF_PERICENTER = 113.8089
MEAN_ANOMALY   = 246.3243

EPHEMERIS_TYPE = 0
CLASSIFICATION_TYPE = U
NORAD_CAT_ID   = 67134
ELEMENT_SET_NO = 999
REV_AT_EPOCH   = 330
BSTAR          = .14523215E-2
MEAN_MOTION_DOT = .52242E-3
MEAN_MOTION_DDOT = 0

CCSDS_OMM_VERS = 2.0
CREATION_DATE  = 
ORIGINATOR     = 

OBJECT_NAME    = KUIPER-00175
OBJECT_ID      = 2025-301C
CENTER_NAME    = EARTH
REF_FRAME      = TEME
TIME_SYSTEM    = UTC
MEAN_ELEMENT_THEORY = SGP/SGP4

EPOCH          = 2025-12-30T17:21:34.149888
MEAN_MOTION    = 15.36786022
ECCENTRICITY   = .00021147
INCLINATION    = 51.8739
RA_OF_ASC_NODE = 38.2793
ARG_OF_PERICENTER = 77.0372
MEAN_ANOMALY   = 283.0850

EPHEMERIS_TYPE = 0
CLASSIFICATION_TYPE = U
NORAD_CAT_ID   = 67135
ELEMENT_SET_NO = 999
REV_AT_EPOCH   = 320
BSTAR          = .12641443E-2
MEAN_MOTION_DOT = .46043E-3
MEAN_MOTION_DDOT = 0

CCSDS_OMM_VERS = 2.0
CREATION_DATE  = 
ORIGINATOR     = 

OBJECT_NAME    = KUIPER-00179
OBJECT_ID      = 2025-301D
CENTER_NAME    = EARTH
REF_FRAME      = TEME
TIME_SYSTEM    = UTC
MEAN_ELEMENT_THEORY = SGP/SGP4

EPOCH          = 2025-12-30T17:25:52.193856
MEAN_MOTION    = 15.36360229
ECCENTRICITY   = .00034018
INCLINATION    = 51.8733
RA_OF_ASC_NODE = 38.3015
ARG_OF_PERICENTER = 89.8416
MEAN_ANOMALY   = 270.2960

EPHEMERIS_TYPE = 0
CLASSIFICATION_TYPE = U
NORAD_CAT_ID   = 67136
ELEMENT_SET_NO = 999
REV_AT_EPOCH   = 331
BSTAR          = .13091988E-2
MEAN_MOTION_DOT = .47055E-3
MEAN_MOTION_DDOT = 0

CCSDS_OMM_VERS = 2.0
CREATION_DATE  = 
ORIGINATOR     = 

OBJECT_NAME    = KUIPER-00181
OBJECT_ID      = 2025-301E
CENTER_NAME    = EARTH
REF_FRAME      = TEME
TIME_SYSTEM    = UTC
MEAN_ELEMENT_THEORY = SGP/SGP4

EPOCH          = 2025-12-30T17:51:47.740320
MEAN_MOTION    = 15.34567209
ECCENTRICITY   = .00104931
INCLINATION    = 51.8648
RA_OF_ASC_NODE = 38.4181
ARG_OF_PERICENTER = 158.1600
MEAN_ANOMALY   = 201.9835

EPHEMERIS_TYPE = 0
CLASSIFICATION_TYPE = U
NORAD_CAT_ID   = 67137
ELEMENT_SET_NO = 999
REV_AT_EPOCH   = 329
BSTAR          = .10787279E-2
MEAN_MOTION_DOT = .36533E-3
MEAN_MOTION_DDOT = 0

CCSDS_OMM_VERS = 2.0
CREATION_DATE  = 
ORIGINATOR     = 

OBJECT_NAME    = KUIPER-00183
OBJECT_ID      = 2025-301F
CENTER_NAME    = EARTH
REF_FRAME      = TEME
TIME_SYSTEM    = UTC
MEAN_ELEMENT_THEORY = SGP/SGP4

EPOCH          = 2025-12-30T17:56:11.940288
MEAN_MOTION    = 15.34290161
ECCENTRICITY   = .00109276
INCLINATION    = 51.8629
RA_OF_ASC_NODE = 38.4360
ARG_OF_PERICENTER = 160.7184
MEAN_ANOMALY   = 199.4216

EPHEMERIS_TYPE = 0
CLASSIFICATION_TYPE = U
NORAD_CAT_ID   = 67138
ELEMENT_SET_NO = 999
REV_AT_EPOCH   = 330
BSTAR          = .91661973E-3
MEAN_MOTION_DOT = .30691E-3
MEAN_MOTION_DDOT = 0

CCSDS_OMM_VERS = 2.0
CREATION_DATE  = 
ORIGINATOR     = 

OBJECT_NAME    = KUIPER-00184
OBJECT_ID      = 2025-301G
CENTER_NAME    = EARTH
REF_FRAME      = TEME
TIME_SYSTEM    = UTC
MEAN_ELEMENT_THEORY = SGP/SGP4

EPOCH          = 2025-12-30T17:50:43.005984
MEAN_MOTION    = 15.34598982
ECCENTRICITY   = .00091163
INCLINATION    = 51.8639
RA_OF_ASC_NODE = 38.4126
ARG_OF_PERICENTER = 156.3896
MEAN_ANOMALY   = 203.7509

EPHEMERIS_TYPE = 0
CLASSIFICATION_TYPE = U
NORAD_CAT_ID   = 67139
ELEMENT_SET_NO = 999
REV_AT_EPOCH   = 341
BSTAR          = .11039256E-2
MEAN_MOTION_DOT = .37422E-3
MEAN_MOTION_DDOT = 0

CCSDS_OMM_VERS = 2.0
CREATION_DATE  = 
ORIGINATOR     = 

OBJECT_NAME    = KUIPER-00186
OBJECT_ID      = 2025-301H
CENTER_NAME    = EARTH
REF_FRAME      = TEME
TIME_SYSTEM    = UTC
MEAN_ELEMENT_THEORY = SGP/SGP4

EPOCH          = 2025-12-30T17:43:10.008192
MEAN_MOTION    = 15.35292522
ECCENTRICITY   = .00078033
INCLINATION    = 51.8690
RA_OF_ASC_NODE = 38.3818
ARG_OF_PERICENTER = 144.0585
MEAN_ANOMALY   = 216.0927

EPHEMERIS_TYPE = 0
CLASSIFICATION_TYPE = U
NORAD_CAT_ID   = 67140
ELEMENT_SET_NO = 999
REV_AT_EPOCH   = 313
BSTAR          = .12157603E-2
MEAN_MOTION_DOT = .42193E-3
MEAN_MOTION_DDOT = 0

CCSDS_OMM_VERS = 2.0
CREATION_DATE  = 
ORIGINATOR     = 

OBJECT_NAME    = KUIPER-00187
OBJECT_ID      = 2025-301J
CENTER_NAME    = EARTH
REF_FRAME      = TEME
TIME_SYSTEM    = UTC
MEAN_ELEMENT_THEORY = SGP/SGP4

EPOCH          = 2025-12-30T17:32:20.668992
MEAN_MOTION    = 15.36065511
ECCENTRICITY   = .00046138
INCLINATION    = 51.8715
RA_OF_ASC_NODE = 38.3341
ARG_OF_PERICENTER = 126.9728
MEAN_ANOMALY   = 233.1681

EPHEMERIS_TYPE = 0
CLASSIFICATION_TYPE = U
NORAD_CAT_ID   = 67141
ELEMENT_SET_NO = 999
REV_AT_EPOCH   = 313
BSTAR          = .1218458E-2
MEAN_MOTION_DOT = .43336E-3
MEAN_MOTION_DDOT = 0

